NORAD_CAT_ID,OBJECT_NAME,OBJECT_TYPE,EPOCH,MEAN_MOTION,ECCENTRICITY,INCLINATION,RA_OF_ASC_NODE,ARG_OF_PERICENTER,MEAN_ANOMALY,BSTAR,MEAN_MOTION_DOT,MEAN_MOTION_DDOT,TLE_LINE0,TLE_LINE1,TLE_LINE2,SEMIMAJOR_AXIS,PERIOD,APOGEE,PERIGEE,DECAYED
55271.0,STARLINK-5306,PAYLOAD,2023-08-26 07:56:33,14.98326489,0.0003268,70.0002,220.2441,265.0859,94.9927,7.2115e-06,-7e-08,0.0,0 STARLINK-5306,1 55271U 23010C   23238.33094630 -.00000007  00000-0  72115-5 0  9991,2 55271  70.0002 220.2441 0003268 265.0859  94.9927 14.98326489 33718,6950.204,96.107,574.34,569.797,0.0
55271.0,STARLINK-5306,PAYLOAD,2023-08-26 11:08:49,14.98330082,0.0003515,69.9992,219.9062,269.6393,90.4363,1.485e-05,8.4e-07,0.0,0 STARLINK-5306,1 55271U 23010C   23238.46446379  .00000084  00000-0  14850-4 0  9991,2 55271  69.9992 219.9062 0003515 269.6393  90.4363 14.98330082 34041,6950.193,96.107,574.501,569.615,0.0
55271.0,STARLINK-5306,PAYLOAD,2023-08-26 22:21:46,14.98330341,0.0003432,69.9993,218.7278,270.9011,89.1755,2.7174e-05,2.31e-06,0.0,0 STARLINK-5306,1 55271U 23010C   23238.93178251  .00000231  00000-0  27174-4 0  9991,2 55271  69.9993 218.7278 0003432 270.9011  89.1755 14.98330341 34114,6950.192,96.107,574.442,569.672,0.0
55271.0,STARLINK-5306,PAYLOAD,2023-08-27 04:46:18,14.98330481,0.0003448,69.9992,218.0545,270.1264,89.95,2.4992e-05,2.05e-06,0.0,0 STARLINK-5306,1 55271U 23010C   23239.19882226  .00000205  00000-0  24992-4 0  9990,2 55271  69.9992 218.0545 0003448 270.1264  89.9500 14.98330481 34157,6950.191,96.107,574.453,569.66,0.0
55271.0,STARLINK-5306,PAYLOAD,2023-08-27 22:23:47,14.98328369,0.0003452,69.9992,216.203,270.2264,89.8499,1.4795e-05,8.3e-07,0.0,0 STARLINK-5306,1 55271U 23010C   23239.93318400  .00000083  00000-0  14795-4 0  9994,2 55271  69.9992 216.2030 0003452 270.2264  89.8499 14.98328369 34262,6950.198,96.107,574.462,569.664,0.0
55271.0,STARLINK-5306,PAYLOAD,2023-08-28 08:00:35,14.98327913,0.0003453,69.9992,215.1933,268.8777,91.1986,9.8604e-06,2.5e-07,0.0,0 STARLINK-5306,1 55271U 23010C   23240.33374460  .00000025  00000-0  98604-5 0  9996,2 55271  69.9992 215.1933 0003453 268.8777  91.1986 14.98327913 34019,6950.199,96.107,574.464,569.664,0.0
55271.0,STARLINK-5306,PAYLOAD,2023-08-28 16:01:15,14.98330649,0.0003461,69.9993,214.3519,268.9733,91.103,1.3145e-05,6.4e-07,0.0,0 STARLINK-5306,1 55271U 23010C   23240.66754273  .00000064  00000-0  13145-4 0  9995,2 55271  69.9993 214.3519 0003461 268.9733  91.1030 14.98330649 34372,6950.191,96.107,574.461,569.65,0.0
55271.0,STARLINK-5306,PAYLOAD,2023-08-29 08:02:36,14.9833392,0.0003401,69.9994,212.6686,268.1374,91.9396,4.7002e-05,4.68e-06,0.0,0 STARLINK-5306,1 55271U 23010C   23241.33513908  .00000468  00000-0  47002-4 0  9995,2 55271  69.9994 212.6686 0003401 268.1374  91.9396 14.98333920 34161,6950.181,96.107,574.41,569.682,0.0
55271.0,STARLINK-5306,PAYLOAD,2023-08-29 09:38:44,14.98334381,0.0003401,69.9994,212.5003,268.1309,91.9461,5.1442e-05,5.21e-06,0.0,0 STARLINK-5306,1 55271U 23010C   23241.40189853  .00000521  00000-0  51442-4 0  9994,2 55271  69.9994 212.5003 0003401 268.1309  91.9461 14.98334381 34481,6950.179,96.107,574.408,569.681,0.0
55271.0,STARLINK-5306,PAYLOAD,2023-08-30 01:40:05,14.98326062,0.0003359,69.9995,210.8171,268.0063,92.0712,-7.4974e-06,-1.83e-06,0.0,0 STARLINK-5306,1 55271U 23010C   23242.06950548 -.00000183  00000-0 -74974-5 0  9996,2 55271  69.9995 210.8171 0003359 268.0063  92.0712 14.98326062 34272,6950.205,96.107,574.405,569.735,0.0
55271.0,STARLINK-5306,PAYLOAD,2023-08-30 08:04:37,14.98330973,0.0002873,69.9997,210.144,264.0529,96.0303,-5.169e-05,-7.1e-06,0.0,0 STARLINK-5306,1 55271U 23010C   23242.33654416 -.00000710  00000-0 -51690-4 0  9996,2 55271  69.9997 210.1440 0002873 264.0529  96.0303 14.98330973 34624,6950.19,96.107,574.052,570.058,0.0
55271.0,STARLINK-5306,PAYLOAD,2023-08-31 20:55:42,14.98337189,0.0001531,70.0021,206.2785,284.2134,75.8855,9.324e-05,1.02e-05,0.0,0 STARLINK-5306,1 55271U 23010C   23243.87202171  .00001020  00000-0  93240-4 0  9993,2 55271  70.0021 206.2785 0001531 284.2134  75.8855 14.98337189 34857,6950.171,96.107,573.1,570.972,0.0
55271.0,STARLINK-5306,PAYLOAD,2023-09-01 03:20:15,14.98321439,0.0004207,70.0022,205.6053,286.9172,73.1526,0.00017493,1.994e-05,0.0,0 STARLINK-5306,1 55271U 23010C   23244.13906731  .00001994  00000-0  17493-3 0  9991,2 55271  70.0022 205.6053 0004207 286.9172  73.1526 14.98321439 34580,6950.219,96.108,575.008,569.16,0.0
55271.0,STARLINK-5306,PAYLOAD,2023-09-01 08:08:39,14.98336626,0.0002713,70.0023,205.1007,270.4242,89.6606,-9.3825e-05,-1.212e-05,0.0,0 STARLINK-5306,1 55271U 23010C   23244.33934749 -.00001212  00000-0 -93825-4 0  9992,2 55271  70.0023 205.1007 0002713 270.4242  89.6606 14.98336626 34610,6950.172,96.107,573.923,570.152,0.0
55271.0,STARLINK-5306,PAYLOAD,2023-09-02 09:46:47,14.98337739,0.000318,69.9995,202.4013,269.7646,90.3149,9.0212e-05,9.84e-06,0.0,0 STARLINK-5306,1 55271U 23010C   23245.40749549  .00000984  00000-0  90212-4 0  9993,2 55271  69.9995 202.4013 0003180 269.7646  90.3149 14.98337739 34774,6950.169,96.107,574.244,569.824,0.0
55271.0,STARLINK-5306,PAYLOAD,2023-09-02 12:59:04,14.983239,0.0003182,69.9995,202.0648,271.0135,89.066,-6.5825e-05,-8.78e-06,0.0,0 STARLINK-5306,1 55271U 23010C   23245.54102742 -.00000878  00000-0 -65825-4 0  9992,2 55271  69.9995 202.0648 0003182 271.0135  89.0660 14.98323900 35101,6950.212,96.107,574.288,569.865,0.0
55271.0,STARLINK-5306,PAYLOAD,2023-09-02 16:11:20,14.98325613,0.0003175,69.9995,201.7281,270.8262,89.2533,-4.5447e-05,-6.35e-06,0.0,0 STARLINK-5306,1 55271U 23010C   23245.67454621 -.00000635  00000-0 -45447-4 0  9991,2 55271  69.9995 201.7281 0003175 270.8262  89.2533 14.98325613 34811,6950.206,96.107,574.278,569.865,0.0
55271.0,STARLINK-5306,PAYLOAD,2023-09-02 20:59:44,14.98327296,0.0003182,69.9995,201.2231,270.7663,89.3131,-2.5759e-05,-4e-06,0.0,0 STARLINK-5306,1 55271U 23010C   23245.87482499 -.00000400  00000-0 -25759-4 0  9991,2 55271  69.9995 201.2231 0003182 270.7663  89.3131 14.98327296 35155,6950.201,96.107,574.278,569.855,0.0
55271.0,STARLINK-5306,PAYLOAD,2023-09-03 03:24:16,14.9833204,0.0003187,69.9996,200.5499,270.7217,89.3576,2.6019e-05,2.17e-06,0.0,0 STARLINK-5306,1 55271U 23010C   23246.14186046  .00000217  00000-0  26019-4 0  9995,2 55271  69.9996 200.5499 0003187 270.7217  89.3576 14.98332040 34889,6950.187,96.107,574.267,569.837,0.0
55271.0,STARLINK-5306,PAYLOAD,2023-09-03 13:01:06,14.98320592,0.0003043,69.9997,199.5401,272.6976,87.3834,-0.00011394,-1.452e-05,0.0,0 STARLINK-5306,1 55271U 23010C   23246.54243104 -.00001452  00000-0 -11394-3 0  9991,2 55271  69.9997 199.5401 0003043 272.6976  87.3834 14.98320592 35250,6950.222,96.108,574.202,569.972,0.0
55271.0,STARLINK-5306,PAYLOAD,2023-09-03 17:49:30,14.98320979,0.0003122,69.9997,199.0352,269.8684,90.2118,-8.6354e-05,-1.123e-05,0.0,0 STARLINK-5306,1 55271U 23010C   23246.74271061 -.00001123  00000-0 -86354-4 0  9990,2 55271  69.9997 199.0352 0003122 269.8684  90.2118 14.98320979 34977,6950.221,96.108,574.256,569.916,0.0
55271.0,STARLINK-5306,PAYLOAD,2023-09-04 08:14:42,14.98329291,0.0003112,69.9998,197.5203,269.8713,90.209,-3.3135e-05,-4.88e-06,0.0,0 STARLINK-5306,1 55271U 23010C   23247.34354586 -.00000488  00000-0 -33135-4 0  9993,2 55271  69.9998 197.5203 0003112 269.8713  90.2090 14.98329291 35064,6950.195,96.107,574.223,569.897,0.0
55271.0,STARLINK-5306,PAYLOAD,2023-09-05 08:16:42,14.98337112,0.0003092,70.0,194.9956,270.441,89.6394,0.00010245,1.13e-05,0.0,0 STARLINK-5306,1 55271U 23010C   23248.34493703  .00001130  00000-0  10245-3 0  9998,2 55271  70.0000 194.9956 0003092 270.4410  89.6394 14.98337112 35213,6950.171,96.107,574.185,569.887,0.0
55271.0,STARLINK-5306,PAYLOAD,2023-09-06 19:31:40,14.98330449,0.0002872,70.0009,191.2933,270.4568,89.6262,-1.0495e-05,-2.18e-06,0.0,0 STARLINK-5306,1 55271U 23010C   23249.81366373 -.00000218  00000-0 -10495-4 0  9999,2 55271  70.0009 191.2933 0002872 270.4568  89.6262 14.98330449 35744,6950.192,96.107,574.053,570.06,0.0
55271.0,STARLINK-5306,PAYLOAD,2023-09-06 22:43:56,14.98331336,0.0002922,70.0008,190.9566,269.5612,90.5213,-3.3148e-05,-4.88e-06,0.0,0 STARLINK-5306,1 55271U 23010C   23249.94718351 -.00000488  00000-0 -33148-4 0  9999,2 55271  70.0008 190.9566 0002922 269.5612  90.5213 14.98331336 35457,6950.189,96.107,574.085,570.023,0.0
55271.0,STARLINK-5306,PAYLOAD,2023-09-07 06:44:36,14.98334943,0.0002918,70.0008,190.1148,270.4376,89.6449,7.805e-06,0.0,0.0,0 STARLINK-5306,1 55271U 23010C   23250.28097955  .00000000  00000-0  78050-5 0  9998,2 55271  70.0008 190.1148 0002918 270.4376  89.6449 14.98334943 35815,6950.178,96.107,574.071,570.015,0.0
55271.0,STARLINK-5306,PAYLOAD,2023-09-08 01:58:13,14.98331089,0.000269,70.0016,188.0942,260.6391,99.4464,2.1658e-05,1.65e-06,0.0,0 STARLINK-5306,1 55271U 23010C   23251.08209972  .00000165  00000-0  21658-4 0  9994,2 55271  70.0016 188.0942 0002690 260.6391  99.4464 14.98331089 35620,6950.19,96.107,573.924,570.185,0.0
55271.0,STARLINK-5306,PAYLOAD,2023-09-08 05:10:29,14.98331237,0.0002693,70.0016,187.7576,260.7054,99.3801,2.2079e-05,1.71e-06,0.0,0 STARLINK-5306,1 55271U 23010C   23251.21561953  .00000171  00000-0  22079-4 0  9994,2 55271  70.0016 187.7576 0002693 260.7054  99.3801 14.98331237 35954,6950.189,96.107,573.926,570.182,0.0
55271.0,STARLINK-5306,PAYLOAD,2023-09-09 02:00:14,14.98327935,0.000275,70.0014,185.57,263.4302,96.6544,-9.039e-06,-2.01e-06,0.0,0 STARLINK-5306,1 55271U 23010C   23252.08350236 -.00000201  00000-0 -90390-5 0  9998,2 55271  70.0014 185.5700 0002750 263.4302  96.6544 14.98327935 35771,6950.199,96.107,573.976,570.153,0.0
55271.0,STARLINK-5306,PAYLOAD,2023-09-09 13:13:10,14.98329561,0.0002847,70.0012,184.3914,265.8455,94.2379,6.282e-06,-1.8e-07,0.0,0 STARLINK-5306,1 55271U 23010C   23252.55082068 -.00000018  00000-0  62820-5 0  9997,2 55271  70.0012 184.3914 0002847 265.8455  94.2379 14.98329561 36155,6950.194,96.107,574.038,570.081,0.0
